WILDTRACKCUBE-SIMBA     
1 47941U 21022K   26064.74205013  .04989897  25292-5  10545-2 0  9998
2 47941  97.3756 346.8405 0004876 163.9164 196.2286 16.30913111275216
GREENCUBE (IO-117)      
1 53109U 22080E   26064.68607483 -.00000003  00000+0  00000+0 0  9992
2 53109  70.1624 334.2457 0009074 312.1560  47.8329  6.42583119 85416
SITRO-AIS 5 (KATYS)     
1 57176U 23091L   26064.74828965  .00015091  00000+0  57136-3 0  9998
2 57176  97.5185 127.7924 0013442 107.6018 252.6690 15.26935617148549
SITRO-AIS 6 (CHIRKIN)   
1 57192U 23091AC  26064.77537025  .00010020  00000+0  41120-3 0  9996
2 57192  97.5190 127.4309 0014214 107.7188 252.5602 15.24337216148523
SITRO-AIS 8 (ANOKHIN)   
1 57193U 23091AD  26064.73623905  .00017708  00000+0  62558-3 0  9994
2 57193  97.5178 128.9835 0012599 105.3190 254.9443 15.29192677148626
SITRO-AIS 7 (FARTUSHNIY)
1 57194U 23091AE  26064.75926970  .00008196  00000+0  33947-3 0  9996
2 57194  97.5189 127.2874 0014062 108.7308 251.5456 15.24090692148513
SITRO-AIS 10 (BURDAEV)  
1 57199U 23091AK  26064.77525763  .00024227  00000+0  72415-3 0  9994
2 57199  97.5191 133.1068 0008423  87.1656 273.0550 15.34543654148888
SITRO-AIS 9 (SHCHUKIN)  
1 57201U 23091AM  26064.77252825  .00022126  00000+0  66945-3 0  9991
2 57201  97.5190 132.9060 0008614  87.1943 273.0285 15.34175722148872
SITRO-AIS 12 (SMIRENNIY)
1 57204U 23091AQ  26064.78145836  .00021430  00000+0  64367-3 0  9991
2 57204  97.5201 133.3218 0008281  82.7820 277.4364 15.34416879148892
SITRO-AIS 11 (SHEFFER)  
1 57208U 23091AU  26064.75551319  .00023483  00000+0  69737-3 0  9995
2 57208  97.5199 133.4835 0008112  82.4788 277.7376 15.34757702148902
SITRO-AIS 25            
1 59066U 24039R   26064.76465686  .00005190  00000+0  41283-3 0  9995
2 59066  95.3944 164.0539 0145755 330.2043  29.0939 14.92591321109292
SITRO-AIS 26            
1 59067U 24039S   26064.75256310  .00005478  00000+0  43746-3 0  9992
2 59067  95.3944 163.9633 0146059 330.7038  28.6052 14.92404084109282
SITRO-AIS 27            
1 59068U 24039T   26064.75095194  .00005511  00000+0  43654-3 0  9990
2 59068  95.3945 164.1878 0145135 329.5356  29.7494 14.92798370109300
SITRO-AIS 28            
1 59071U 24039U   26064.73078231  .00005296  00000+0  41922-3 0  9991
2 59071  95.3943 164.2158 0145125 329.4081  29.8738 14.92830437109300
GRBBETA                 
1 60237U 24128C   26064.65635354  .00007711  00000+0  52855-3 0  9993
2 60237  61.9896 219.2687 0051851 113.3061 247.3501 15.05732081 90675
OOV-CUBE (TUBSAT-30)    
1 60240U 24128F   26064.70233357  .00004973  00000+0  37912-3 0  9994
2 60240  61.9942 226.2774 0054836 111.5078 249.1871 15.02213817 90566
