[{"OBJECT_NAME":"WILDTRACKCUBE-SIMBA","OBJECT_ID":"2021-022K","EPOCH":"2026-03-05T17:48:33.131232","MEAN_MOTION":16.30913111,"ECCENTRICITY":0.0004876,"INCLINATION":97.3756,"RA_OF_ASC_NODE":346.8405,"ARG_OF_PERICENTER":163.9164,"MEAN_ANOMALY":196.2286,"EPHEMERIS_TYPE":0,"CLASSIFICATION_TYPE":"U","NORAD_CAT_ID":47941,"ELEMENT_SET_NO":999,"REV_AT_EPOCH":27521,"BSTAR":0.0010545,"MEAN_MOTION_DOT":0.04989897,"MEAN_MOTION_DDOT":2.5292e-6},{"OBJECT_NAME":"GREENCUBE (IO-117)","OBJECT_ID":"2022-080E","EPOCH":"2026-03-05T16:27:56.865312","MEAN_MOTION":6.42583119,"ECCENTRICITY":0.0009074,"INCLINATION":70.1624,"RA_OF_ASC_NODE":334.2457,"ARG_OF_PERICENTER":312.156,"MEAN_ANOMALY":47.8329,"EPHEMERIS_TYPE":0,"CLASSIFICATION_TYPE":"U","NORAD_CAT_ID":53109,"ELEMENT_SET_NO":999,"REV_AT_EPOCH":8541,"BSTAR":0,"MEAN_MOTION_DOT":-3.0e-8,"MEAN_MOTION_DDOT":0},{"OBJECT_NAME":"SITRO-AIS 5 (KATYS)","OBJECT_ID":"2023-091L","EPOCH":"2026-03-05T17:57:32.225760","MEAN_MOTION":15.26935617,"ECCENTRICITY":0.0013442,"INCLINATION":97.5185,"RA_OF_ASC_NODE":127.7924,"ARG_OF_PERICENTER":107.6018,"MEAN_ANOMALY":252.669,"EPHEMERIS_TYPE":0,"CLASSIFICATION_TYPE":"U","NORAD_CAT_ID":57176,"ELEMENT_SET_NO":999,"REV_AT_EPOCH":14854,"BSTAR":0.00057136,"MEAN_MOTION_DOT":0.00015091,"MEAN_MOTION_DDOT":0},{"OBJECT_NAME":"SITRO-AIS 6 (CHIRKIN)","OBJECT_ID":"2023-091AC","EPOCH":"2026-03-05T18:36:31.989600","MEAN_MOTION":15.24337216,"ECCENTRICITY":0.0014214,"INCLINATION":97.519,"RA_OF_ASC_NODE":127.4309,"ARG_OF_PERICENTER":107.7188,"MEAN_ANOMALY":252.5602,"EPHEMERIS_TYPE":0,"CLASSIFICATION_TYPE":"U","NORAD_CAT_ID":57192,"ELEMENT_SET_NO":999,"REV_AT_EPOCH":14852,"BSTAR":0.0004112,"MEAN_MOTION_DOT":0.0001002,"MEAN_MOTION_DDOT":0},{"OBJECT_NAME":"SITRO-AIS 8 (ANOKHIN)","OBJECT_ID":"2023-091AD","EPOCH":"2026-03-05T17:40:11.053920","MEAN_MOTION":15.29192677,"ECCENTRICITY":0.0012599,"INCLINATION":97.5178,"RA_OF_ASC_NODE":128.9835,"ARG_OF_PERICENTER":105.319,"MEAN_ANOMALY":254.9443,"EPHEMERIS_TYPE":0,"CLASSIFICATION_TYPE":"U","NORAD_CAT_ID":57193,"ELEMENT_SET_NO":999,"REV_AT_EPOCH":14862,"BSTAR":0.00062558,"MEAN_MOTION_DOT":0.00017708,"MEAN_MOTION_DDOT":0},{"OBJECT_NAME":"SITRO-AIS 7 (FARTUSHNIY)","OBJECT_ID":"2023-091AE","EPOCH":"2026-03-05T18:13:20.902080","MEAN_MOTION":15.24090692,"ECCENTRICITY":0.0014062,"INCLINATION":97.5189,"RA_OF_ASC_NODE":127.2874,"ARG_OF_PERICENTER":108.7308,"MEAN_ANOMALY":251.5456,"EPHEMERIS_TYPE":0,"CLASSIFICATION_TYPE":"U","NORAD_CAT_ID":57194,"ELEMENT_SET_NO":999,"REV_AT_EPOCH":14851,"BSTAR":0.00033947,"MEAN_MOTION_DOT":8.196e-5,"MEAN_MOTION_DDOT":0},{"OBJECT_NAME":"SITRO-AIS 10 (BURDAEV)","OBJECT_ID":"2023-091AK","EPOCH":"2026-03-05T18:36:22.259232","MEAN_MOTION":15.34543654,"ECCENTRICITY":0.0008423,"INCLINATION":97.5191,"RA_OF_ASC_NODE":133.1068,"ARG_OF_PERICENTER":87.1656,"MEAN_ANOMALY":273.055,"EPHEMERIS_TYPE":0,"CLASSIFICATION_TYPE":"U","NORAD_CAT_ID":57199,"ELEMENT_SET_NO":999,"REV_AT_EPOCH":14888,"BSTAR":0.00072415,"MEAN_MOTION_DOT":0.00024227,"MEAN_MOTION_DDOT":0},{"OBJECT_NAME":"SITRO-AIS 9 (SHCHUKIN)","OBJECT_ID":"2023-091AM","EPOCH":"2026-03-05T18:32:26.440800","MEAN_MOTION":15.34175722,"ECCENTRICITY":0.0008614,"INCLINATION":97.519,"RA_OF_ASC_NODE":132.906,"ARG_OF_PERICENTER":87.1943,"MEAN_ANOMALY":273.0285,"EPHEMERIS_TYPE":0,"CLASSIFICATION_TYPE":"U","NORAD_CAT_ID":57201,"ELEMENT_SET_NO":999,"REV_AT_EPOCH":14887,"BSTAR":0.00066945,"MEAN_MOTION_DOT":0.00022126,"MEAN_MOTION_DDOT":0},{"OBJECT_NAME":"SITRO-AIS 12 (SMIRENNIY)","OBJECT_ID":"2023-091AQ","EPOCH":"2026-03-05T18:45:18.002304","MEAN_MOTION":15.34416879,"ECCENTRICITY":0.0008281,"INCLINATION":97.5201,"RA_OF_ASC_NODE":133.3218,"ARG_OF_PERICENTER":82.782,"MEAN_ANOMALY":277.4364,"EPHEMERIS_TYPE":0,"CLASSIFICATION_TYPE":"U","NORAD_CAT_ID":57204,"ELEMENT_SET_NO":999,"REV_AT_EPOCH":14889,"BSTAR":0.00064367,"MEAN_MOTION_DOT":0.0002143,"MEAN_MOTION_DDOT":0},{"OBJECT_NAME":"SITRO-AIS 11 (SHEFFER)","OBJECT_ID":"2023-091AU","EPOCH":"2026-03-05T18:07:56.339616","MEAN_MOTION":15.34757702,"ECCENTRICITY":0.0008112,"INCLINATION":97.5199,"RA_OF_ASC_NODE":133.4835,"ARG_OF_PERICENTER":82.4788,"MEAN_ANOMALY":277.7376,"EPHEMERIS_TYPE":0,"CLASSIFICATION_TYPE":"U","NORAD_CAT_ID":57208,"ELEMENT_SET_NO":999,"REV_AT_EPOCH":14890,"BSTAR":0.00069737,"MEAN_MOTION_DOT":0.00023483,"MEAN_MOTION_DDOT":0},{"OBJECT_NAME":"SITRO-AIS 25","OBJECT_ID":"2024-039R","EPOCH":"2026-03-05T18:21:06.352704","MEAN_MOTION":14.92591321,"ECCENTRICITY":0.0145755,"INCLINATION":95.3944,"RA_OF_ASC_NODE":164.0539,"ARG_OF_PERICENTER":330.2043,"MEAN_ANOMALY":29.0939,"EPHEMERIS_TYPE":0,"CLASSIFICATION_TYPE":"U","NORAD_CAT_ID":59066,"ELEMENT_SET_NO":999,"REV_AT_EPOCH":10929,"BSTAR":0.00041283,"MEAN_MOTION_DOT":5.19e-5,"MEAN_MOTION_DDOT":0},{"OBJECT_NAME":"SITRO-AIS 26","OBJECT_ID":"2024-039S","EPOCH":"2026-03-05T18:03:41.451840","MEAN_MOTION":14.92404084,"ECCENTRICITY":0.0146059,"INCLINATION":95.3944,"RA_OF_ASC_NODE":163.9633,"ARG_OF_PERICENTER":330.7038,"MEAN_ANOMALY":28.6052,"EPHEMERIS_TYPE":0,"CLASSIFICATION_TYPE":"U","NORAD_CAT_ID":59067,"ELEMENT_SET_NO":999,"REV_AT_EPOCH":10928,"BSTAR":0.00043746,"MEAN_MOTION_DOT":5.478e-5,"MEAN_MOTION_DDOT":0},{"OBJECT_NAME":"SITRO-AIS 27","OBJECT_ID":"2024-039T","EPOCH":"2026-03-05T18:01:22.247616","MEAN_MOTION":14.9279837,"ECCENTRICITY":0.0145135,"INCLINATION":95.3945,"RA_OF_ASC_NODE":164.1878,"ARG_OF_PERICENTER":329.5356,"MEAN_ANOMALY":29.7494,"EPHEMERIS_TYPE":0,"CLASSIFICATION_TYPE":"U","NORAD_CAT_ID":59068,"ELEMENT_SET_NO":999,"REV_AT_EPOCH":10930,"BSTAR":0.00043654,"MEAN_MOTION_DOT":5.511e-5,"MEAN_MOTION_DDOT":0},{"OBJECT_NAME":"SITRO-AIS 28","OBJECT_ID":"2024-039U","EPOCH":"2026-03-05T17:32:19.591584","MEAN_MOTION":14.92830437,"ECCENTRICITY":0.0145125,"INCLINATION":95.3943,"RA_OF_ASC_NODE":164.2158,"ARG_OF_PERICENTER":329.4081,"MEAN_ANOMALY":29.8738,"EPHEMERIS_TYPE":0,"CLASSIFICATION_TYPE":"U","NORAD_CAT_ID":59071,"ELEMENT_SET_NO":999,"REV_AT_EPOCH":10930,"BSTAR":0.00041922,"MEAN_MOTION_DOT":5.296e-5,"MEAN_MOTION_DDOT":0},{"OBJECT_NAME":"GRBBETA","OBJECT_ID":"2024-128C","EPOCH":"2026-03-05T15:45:08.945856","MEAN_MOTION":15.05732081,"ECCENTRICITY":0.0051851,"INCLINATION":61.9896,"RA_OF_ASC_NODE":219.2687,"ARG_OF_PERICENTER":113.3061,"MEAN_ANOMALY":247.3501,"EPHEMERIS_TYPE":0,"CLASSIFICATION_TYPE":"U","NORAD_CAT_ID":60237,"ELEMENT_SET_NO":999,"REV_AT_EPOCH":9067,"BSTAR":0.00052855,"MEAN_MOTION_DOT":7.711e-5,"MEAN_MOTION_DDOT":0},{"OBJECT_NAME":"OOV-CUBE (TUBSAT-30)","OBJECT_ID":"2024-128F","EPOCH":"2026-03-05T16:51:21.620448","MEAN_MOTION":15.02213817,"ECCENTRICITY":0.0054836,"INCLINATION":61.9942,"RA_OF_ASC_NODE":226.2774,"ARG_OF_PERICENTER":111.5078,"MEAN_ANOMALY":249.1871,"EPHEMERIS_TYPE":0,"CLASSIFICATION_TYPE":"U","NORAD_CAT_ID":60240,"ELEMENT_SET_NO":999,"REV_AT_EPOCH":9056,"BSTAR":0.00037912,"MEAN_MOTION_DOT":4.973e-5,"MEAN_MOTION_DDOT":0}]
